{
    "links": {
        "self": "http://www.neowsapp.com/rest/v1/neo/3883092?api_key=iIulBulltgU6a56xZRHN4H3l9WmuAYTsLGpBGhQ2"
    },
    "id": "3883092",
    "neo_reference_id": "3883092",
    "name": "(2019 UP7)",
    "designation": "2019 UP7",
    "nasa_jpl_url": "http://ssd.jpl.nasa.gov/sbdb.cgi?sstr=3883092",
    "absolute_magnitude_h": 25.6,
    "estimated_diameter": {
        "kilometers": {
            "estimated_diameter_min": 0.0201629919,
            "estimated_diameter_max": 0.0450858206
        },
        "meters": {
            "estimated_diameter_min": 20.1629919443,
            "estimated_diameter_max": 45.0858206172
        },
        "miles": {
            "estimated_diameter_min": 0.0125286985,
            "estimated_diameter_max": 0.0280150214
        },
        "feet": {
            "estimated_diameter_min": 66.1515504905,
            "estimated_diameter_max": 147.9193637137
        }
    },
    "is_potentially_hazardous_asteroid": false,
    "close_approach_data": [
        {
            "close_approach_date": "2019-11-01",
            "close_approach_date_full": "2019-Nov-01 19:09",
            "epoch_date_close_approach": 1572635340000,
            "relative_velocity": {
                "kilometers_per_second": "9.4483596499",
                "kilometers_per_hour": "34014.0947395784",
                "miles_per_hour": "21135.035700823"
            },
            "miss_distance": {
                "astronomical": "0.0395794988",
                "lunar": "15.3964250332",
                "kilometers": "5921008.716147556",
                "miles": "3679144.2120300328"
            },
            "orbiting_body": "Earth"
        }
    ],
    "orbital_data": {
        "orbit_id": "4",
        "orbit_determination_date": "2019-12-04 07:20:41",
        "first_observation_date": "2019-10-24",
        "last_observation_date": "2019-10-30",
        "data_arc_in_days": 6,
        "observations_used": 19,
        "orbit_uncertainty": "8",
        "minimum_orbit_intersection": ".0395291",
        "jupiter_tisserand_invariant": "3.831",
        "epoch_osculation": "2458781.5",
        "eccentricity": ".4999450288271214",
        "semi_major_axis": "1.858045873741246",
        "inclination": "5.483351828596518",
        "ascending_node_longitude": "195.8509060871648",
        "orbital_period": "925.0880590422345",
        "perihelion_distance": ".9291250758315645",
        "perihelion_argument": "242.5232596799238",
        "aphelion_distance": "2.786966671650926",
        "perihelion_time": "2458820.284839203584",
        "mean_anomaly": "344.9067967348471",
        "mean_motion": ".3891521423081782",
        "equinox": "J2000",
        "orbit_class": {
            "orbit_class_type": "APO",
            "orbit_class_description": "Near-Earth asteroid orbits which cross the Earth’s orbit similar to that of 1862 Apollo",
            "orbit_class_range": "a (semi-major axis) > 1.0 AU; q (perihelion) < 1.017 AU"
        }
    },
    "is_sentry_object": false
}